{
  "type": "FeatureCollection",
  "features": [
    {
      "type": "Feature",
      "properties": {
        "norad_id": 59626,
        "name": "LEGION 2",
        "group": "resource",
        "lat": -65.96045922137691,
        "lon": -145.0546763484322,
        "alt_km": 523.7881295810512,
        "timestamp": "2025-12-03T08:58:45.657071+00:00",
        "meta_object_name": "LEGION 2",
        "meta_object_id": "2024-081B",
        "meta_epoch": "2025-12-03T04:43:30.147744",
        "meta_mean_motion": 15.16337873,
        "meta_eccentricity": 0.0006257,
        "meta_inclination": 97.5234,
        "meta_ra_of_asc_node": 52.0042,
        "meta_arg_of_pericenter": 332.6143,
        "meta_mean_anomaly": 27.4759,
        "meta_ephemeris_type": 0,
        "meta_classification_type": "U",
        "meta_norad_cat_id": 59626,
        "meta_element_set_no": 999,
        "meta_rev_at_epoch": 8783,
        "meta_bstar": 0.00033145,
        "meta_mean_motion_dot": 6.364e-05,
        "meta_mean_motion_ddot": 0,
        "tle_line1": "1 59626U 24081B   25337.19687671  .00006364  00000+0  33145-3 0  9995",
        "tle_line2": "2 59626  97.5234  52.0042 0006257 332.6143  27.4759 15.16337873 87839"
      },
      "geometry": {
        "type": "Point",
        "coordinates": [
          -145.0546763484322,
          -65.96045922137691
        ]
      }
    },
    {
      "type": "Feature",
      "properties": {
        "norad_id": 60182,
        "name": "ALOS-4 (DAICHI-4)",
        "group": "resource",
        "lat": 66.52877302854309,
        "lon": 53.64725135745902,
        "alt_km": 623.734743088211,
        "timestamp": "2025-12-03T08:58:45.657081+00:00",
        "meta_object_name": "ALOS-4 (DAICHI-4)",
        "meta_object_id": "2024-123A",
        "meta_epoch": "2025-11-30T09:15:12.370176",
        "meta_mean_motion": 14.79468497,
        "meta_eccentricity": 0.000127,
        "meta_inclination": 97.9232,
        "meta_ra_of_asc_node": 69.4089,
        "meta_arg_of_pericenter": 105.4124,
        "meta_mean_anomaly": 254.7228,
        "meta_ephemeris_type": 0,
        "meta_classification_type": "U",
        "meta_norad_cat_id": 60182,
        "meta_element_set_no": 999,
        "meta_rev_at_epoch": 7648,
        "meta_bstar": -8.429942e-06,
        "meta_mean_motion_dot": -1.14e-06,
        "meta_mean_motion_ddot": 0,
        "tle_line1": "1 60182U 24123A   25334.38555984 -.00000114  00000+0 -84299-5 0  9997",
        "tle_line2": "2 60182  97.9232  69.4089 0001270 105.4124 254.7228 14.79468497 76488"
      },
      "geometry": {
        "type": "Point",
        "coordinates": [
          53.64725135745902,
          66.52877302854309
        ]
      }
    },
    {
      "type": "Feature",
      "properties": {
        "norad_id": 60452,
        "name": "LEGION 3",
        "group": "resource",
        "lat": -35.28514722466556,
        "lon": -134.58688627474058,
        "alt_km": 522.2834634289657,
        "timestamp": "2025-12-03T08:58:45.657092+00:00",
        "meta_object_name": "LEGION 3",
        "meta_object_id": "2024-146A",
        "meta_epoch": "2025-12-03T03:12:13.181760",
        "meta_mean_motion": 15.15596202,
        "meta_eccentricity": 0.0013769,
        "meta_inclination": 45.0023,
        "meta_ra_of_asc_node": 1.6242,
        "meta_arg_of_pericenter": 144.0868,
        "meta_mean_anomaly": 216.0938,
        "meta_ephemeris_type": 0,
        "meta_classification_type": "U",
        "meta_norad_cat_id": 60452,
        "meta_element_set_no": 999,
        "meta_rev_at_epoch": 7227,
        "meta_bstar": 0.00038426,
        "meta_mean_motion_dot": 7.178e-05,
        "meta_mean_motion_ddot": 0,
        "tle_line1": "1 60452U 24146A   25337.13348590  .00007178  00000+0  38426-3 0  9995",
        "tle_line2": "2 60452  45.0023   1.6242 0013769 144.0868 216.0938 15.15596202 72278"
      },
      "geometry": {
        "type": "Point",
        "coordinates": [
          -134.58688627474058,
          -35.28514722466556
        ]
      }
    },
    {
      "type": "Feature",
      "properties": {
        "norad_id": 60453,
        "name": "LEGION 4",
        "group": "resource",
        "lat": -32.465105554654116,
        "lon": -48.464779757725175,
        "alt_km": 516.3849473748642,
        "timestamp": "2025-12-03T08:58:45.657103+00:00",
        "meta_object_name": "LEGION 4",
        "meta_object_id": "2024-146B",
        "meta_epoch": "2025-12-02T19:19:00.365376",
        "meta_mean_motion": 15.15650454,
        "meta_eccentricity": 0.0009876,
        "meta_inclination": 45.0377,
        "meta_ra_of_asc_node": 95.1053,
        "meta_arg_of_pericenter": 259.4625,
        "meta_mean_anomaly": 100.5141,
        "meta_ephemeris_type": 0,
        "meta_classification_type": "U",
        "meta_norad_cat_id": 60453,
        "meta_element_set_no": 999,
        "meta_rev_at_epoch": 7107,
        "meta_bstar": 0.00045505,
        "meta_mean_motion_dot": 8.556e-05,
        "meta_mean_motion_ddot": 0,
        "tle_line1": "1 60453U 24146B   25336.80486534  .00008556  00000+0  45505-3 0  9997",
        "tle_line2": "2 60453  45.0377  95.1053 0009876 259.4625 100.5141 15.15650454 71075"
      },
      "geometry": {
        "type": "Point",
        "coordinates": [
          -48.464779757725175,
          -32.465105554654116
        ]
      }
    },
    {
      "type": "Feature",
      "properties": {
        "norad_id": 60989,
        "name": "SENTINEL-2C",
        "group": "resource",
        "lat": 29.004296509361,
        "lon": 45.20148487793076,
        "alt_km": 787.306918071653,
        "timestamp": "2025-12-03T08:58:45.657116+00:00",
        "meta_object_name": "SENTINEL-2C",
        "meta_object_id": "2024-157A",
        "meta_epoch": "2025-12-03T03:48:27.397152",
        "meta_mean_motion": 14.30823791,
        "meta_eccentricity": 0.0001149,
        "meta_inclination": 98.5614,
        "meta_ra_of_asc_node": 49.7801,
        "meta_arg_of_pericenter": 101.933,
        "meta_mean_anomaly": 258.1982,
        "meta_ephemeris_type": 0,
        "meta_classification_type": "U",
        "meta_norad_cat_id": 60989,
        "meta_element_set_no": 999,
        "meta_rev_at_epoch": 6495,
        "meta_bstar": 9.6841e-05,
        "meta_mean_motion_dot": 2.1e-06,
        "meta_mean_motion_ddot": 0,
        "tle_line1": "1 60989U 24157A   25337.15865043  .00000210  00000+0  96841-4 0  9997",
        "tle_line2": "2 60989  98.5614  49.7801 0001149 101.9330 258.1982 14.30823791 64955"
      },
      "geometry": {
        "type": "Point",
        "coordinates": [
          45.20148487793076,
          29.004296509361
        ]
      }
    },
    {
      "type": "Feature",
      "properties": {
        "norad_id": 61735,
        "name": "IONOSFERA-M 1",
        "group": "resource",
        "lat": -28.327525900858912,
        "lon": 22.536412955699873,
        "alt_km": 822.9683223207257,
        "timestamp": "2025-12-03T08:58:45.657127+00:00",
        "meta_object_name": "IONOSFERA-M 1",
        "meta_object_id": "2024-199A",
        "meta_epoch": "2025-12-03T04:37:34.519296",
        "meta_mean_motion": 14.22710519,
        "meta_eccentricity": 0.0001381,
        "meta_inclination": 98.7409,
        "meta_ra_of_asc_node": 207.1138,
        "meta_arg_of_pericenter": 35.2663,
        "meta_mean_anomaly": 324.8606,
        "meta_ephemeris_type": 0,
        "meta_classification_type": "U",
        "meta_norad_cat_id": 61735,
        "meta_element_set_no": 999,
        "meta_rev_at_epoch": 9983,
        "meta_bstar": 6.7266e-05,
        "meta_mean_motion_dot": 1.06e-06,
        "meta_mean_motion_ddot": 0,
        "tle_line1": "1 61735U 24199A   25337.19276064  .00000106  00000+0  67266-4 0  9999",
        "tle_line2": "2 61735  98.7409 207.1138 0001381  35.2663 324.8606 14.22710519 99831"
      },
      "geometry": {
        "type": "Point",
        "coordinates": [
          22.536412955699873,
          -28.327525900858912
        ]
      }
    },
    {
      "type": "Feature",
      "properties": {
        "norad_id": 61736,
        "name": "IONOSFERA-M 2",
        "group": "resource",
        "lat": 30.66075228505128,
        "lon": -158.0267010610754,
        "alt_km": 814.503910138098,
        "timestamp": "2025-12-03T08:58:45.657137+00:00",
        "meta_object_name": "IONOSFERA-M 2",
        "meta_object_id": "2024-199B",
        "meta_epoch": "2025-12-03T03:46:12.711648",
        "meta_mean_motion": 14.22712588,
        "meta_eccentricity": 0.0001372,
        "meta_inclination": 98.7408,
        "meta_ra_of_asc_node": 206.991,
        "meta_arg_of_pericenter": 121.9583,
        "meta_mean_anomaly": 238.1728,
        "meta_ephemeris_type": 0,
        "meta_classification_type": "U",
        "meta_norad_cat_id": 61736,
        "meta_element_set_no": 999,
        "meta_rev_at_epoch": 10295,
        "meta_bstar": 6.8284e-05,
        "meta_mean_motion_dot": 1.09e-06,
        "meta_mean_motion_ddot": 0,
        "tle_line1": "1 61736U 24199B   25337.15709157  .00000109  00000+0  68284-4 0  9994",
        "tle_line2": "2 61736  98.7408 206.9910 0001372 121.9583 238.1728 14.22712588102958"
      },
      "geometry": {
        "type": "Point",
        "coordinates": [
          -158.0267010610754,
          30.66075228505128
        ]
      }
    }
  ]
}